STARLINK-31141          
1 58803U 24012S   26068.29670753 -.00022971  00000+0 -82861-3 0  9994
2 58803  42.9989 167.6553 0000713 245.7491 114.3286 15.27549168121178
TROLL                   
1 62658U 25009BB  26068.22522958  .00013174  00000+0  48220-3 0  9994
2 62658  97.3932 150.7169 0001816  59.1850 300.9568 15.28164315118170
